CCSDS_OMM_VERS = 2.0
CREATION_DATE  = 
ORIGINATOR     = 

OBJECT_NAME    = STARLINK-36265
OBJECT_ID      = 2025-304S
CENTER_NAME    = EARTH
REF_FRAME      = TEME
TIME_SYSTEM    = UTC
MEAN_ELEMENT_THEORY = SGP/SGP4

EPOCH          = 2026-01-07T12:00:01.999296
MEAN_MOTION    = 15.49191768
ECCENTRICITY   = .0003005
INCLINATION    = 69.9998
RA_OF_ASC_NODE = 335.0556
ARG_OF_PERICENTER = 264.5252
MEAN_ANOMALY   = 10.1760

EPHEMERIS_TYPE = 0
CLASSIFICATION_TYPE = U
NORAD_CAT_ID   = 67208
ELEMENT_SET_NO = 999
REV_AT_EPOCH   = 460
BSTAR          = -.42976E-1
MEAN_MOTION_DOT = -.208905E-1
MEAN_MOTION_DDOT = 0

CCSDS_OMM_VERS = 2.0
CREATION_DATE  = 
ORIGINATOR     = 

OBJECT_NAME    = STARLINK-36226
OBJECT_ID      = 2025-304T
CENTER_NAME    = EARTH
REF_FRAME      = TEME
TIME_SYSTEM    = UTC
MEAN_ELEMENT_THEORY = SGP/SGP4

EPOCH          = 2026-01-07T12:00:01.999296
MEAN_MOTION    = 15.52552292
ECCENTRICITY   = .0003394
INCLINATION    = 70.0003
RA_OF_ASC_NODE = 335.0477
ARG_OF_PERICENTER = 277.9165
MEAN_ANOMALY   = 3.1999

EPHEMERIS_TYPE = 0
CLASSIFICATION_TYPE = U
NORAD_CAT_ID   = 67209
ELEMENT_SET_NO = 999
REV_AT_EPOCH   = 460
BSTAR          = -.83252E-3
MEAN_MOTION_DOT = -.51119E-3
MEAN_MOTION_DDOT = 0

CCSDS_OMM_VERS = 2.0
CREATION_DATE  = 
ORIGINATOR     = 

OBJECT_NAME    = STARLINK-36173
OBJECT_ID      = 2025-304U
CENTER_NAME    = EARTH
REF_FRAME      = TEME
TIME_SYSTEM    = UTC
MEAN_ELEMENT_THEORY = SGP/SGP4

EPOCH          = 2026-01-07T12:00:01.999296
MEAN_MOTION    = 15.52490293
ECCENTRICITY   = .0003168
INCLINATION    = 69.9997
RA_OF_ASC_NODE = 335.0440
ARG_OF_PERICENTER = 270.6557
MEAN_ANOMALY   = 12.4053

EPHEMERIS_TYPE = 0
CLASSIFICATION_TYPE = U
NORAD_CAT_ID   = 67210
ELEMENT_SET_NO = 999
REV_AT_EPOCH   = 460
BSTAR          = .50353E-3
MEAN_MOTION_DOT = .30898E-3
MEAN_MOTION_DDOT = 0

CCSDS_OMM_VERS = 2.0
CREATION_DATE  = 
ORIGINATOR     = 

OBJECT_NAME    = STARLINK-36280
OBJECT_ID      = 2025-304V
CENTER_NAME    = EARTH
REF_FRAME      = TEME
TIME_SYSTEM    = UTC
MEAN_ELEMENT_THEORY = SGP/SGP4

EPOCH          = 2026-01-07T12:00:01.999296
MEAN_MOTION    = 15.52491938
ECCENTRICITY   = .0003258
INCLINATION    = 69.9998
RA_OF_ASC_NODE = 335.0417
ARG_OF_PERICENTER = 273.2065
MEAN_ANOMALY   = 11.7721

EPHEMERIS_TYPE = 0
CLASSIFICATION_TYPE = U
NORAD_CAT_ID   = 67211
ELEMENT_SET_NO = 999
REV_AT_EPOCH   = 460
BSTAR          = .37407E-3
MEAN_MOTION_DOT = .22889E-3
MEAN_MOTION_DDOT = 0

CCSDS_OMM_VERS = 2.0
CREATION_DATE  = 
ORIGINATOR     = 

OBJECT_NAME    = STARLINK-36213
OBJECT_ID      = 2025-304W
CENTER_NAME    = EARTH
REF_FRAME      = TEME
TIME_SYSTEM    = UTC
MEAN_ELEMENT_THEORY = SGP/SGP4

EPOCH          = 2026-01-07T12:00:01.999296
MEAN_MOTION    = 15.52481033
ECCENTRICITY   = .0003131
INCLINATION    = 70.0000
RA_OF_ASC_NODE = 335.0389
ARG_OF_PERICENTER = 273.5667
MEAN_ANOMALY   = 13.3402

EPHEMERIS_TYPE = 0
CLASSIFICATION_TYPE = U
NORAD_CAT_ID   = 67212
ELEMENT_SET_NO = 999
REV_AT_EPOCH   = 460
BSTAR          = .53372E-3
MEAN_MOTION_DOT = .32757E-3
MEAN_MOTION_DDOT = 0

CCSDS_OMM_VERS = 2.0
CREATION_DATE  = 
ORIGINATOR     = 

OBJECT_NAME    = STARLINK-36199
OBJECT_ID      = 2025-304X
CENTER_NAME    = EARTH
REF_FRAME      = TEME
TIME_SYSTEM    = UTC
MEAN_ELEMENT_THEORY = SGP/SGP4

EPOCH          = 2026-01-07T12:00:01.999296
MEAN_MOTION    = 15.52496109
ECCENTRICITY   = .0003093
INCLINATION    = 69.9999
RA_OF_ASC_NODE = 335.0377
ARG_OF_PERICENTER = 275.0444
MEAN_ANOMALY   = 13.7651

EPHEMERIS_TYPE = 0
CLASSIFICATION_TYPE = U
NORAD_CAT_ID   = 67213
ELEMENT_SET_NO = 999
REV_AT_EPOCH   = 460
BSTAR          = .22645E-3
MEAN_MOTION_DOT = .13776E-3
MEAN_MOTION_DDOT = 0

CCSDS_OMM_VERS = 2.0
CREATION_DATE  = 
ORIGINATOR     = 

OBJECT_NAME    = STARLINK-36203
OBJECT_ID      = 2025-304Y
CENTER_NAME    = EARTH
REF_FRAME      = TEME
TIME_SYSTEM    = UTC
MEAN_ELEMENT_THEORY = SGP/SGP4

EPOCH          = 2026-01-07T12:00:01.999296
MEAN_MOTION    = 15.52559897
ECCENTRICITY   = .0003319
INCLINATION    = 70.0000
RA_OF_ASC_NODE = 335.0357
ARG_OF_PERICENTER = 270.3198
MEAN_ANOMALY   = 20.3836

EPHEMERIS_TYPE = 0
CLASSIFICATION_TYPE = U
NORAD_CAT_ID   = 67214
ELEMENT_SET_NO = 999
REV_AT_EPOCH   = 460
BSTAR          = -.15139E-2
MEAN_MOTION_DOT = -.92366E-3
MEAN_MOTION_DDOT = 0

CCSDS_OMM_VERS = 2.0
CREATION_DATE  = 
ORIGINATOR     = 

OBJECT_NAME    = STARLINK-36221
OBJECT_ID      = 2025-304Z
CENTER_NAME    = EARTH
REF_FRAME      = TEME
TIME_SYSTEM    = UTC
MEAN_ELEMENT_THEORY = SGP/SGP4

EPOCH          = 2026-01-07T12:00:01.999296
MEAN_MOTION    = 15.52556770
ECCENTRICITY   = .0003144
INCLINATION    = 70.0000
RA_OF_ASC_NODE = 335.0337
ARG_OF_PERICENTER = 269.6613
MEAN_ANOMALY   = 22.9597

EPHEMERIS_TYPE = 0
CLASSIFICATION_TYPE = U
NORAD_CAT_ID   = 67215
ELEMENT_SET_NO = 999
REV_AT_EPOCH   = 460
BSTAR          = -.14802E-2
MEAN_MOTION_DOT = -.90328E-3
MEAN_MOTION_DDOT = 0

CCSDS_OMM_VERS = 2.0
CREATION_DATE  = 
ORIGINATOR     = 

OBJECT_NAME    = STARLINK-36212
OBJECT_ID      = 2025-304AA
CENTER_NAME    = EARTH
REF_FRAME      = TEME
TIME_SYSTEM    = UTC
MEAN_ELEMENT_THEORY = SGP/SGP4

EPOCH          = 2026-01-07T12:00:01.999296
MEAN_MOTION    = 15.52491467
ECCENTRICITY   = .0003202
INCLINATION    = 69.9999
RA_OF_ASC_NODE = 335.0306
ARG_OF_PERICENTER = 272.1023
MEAN_ANOMALY   = 22.4604

EPHEMERIS_TYPE = 0
CLASSIFICATION_TYPE = U
NORAD_CAT_ID   = 67216
ELEMENT_SET_NO = 999
REV_AT_EPOCH   = 460
BSTAR          = .35444E-3
MEAN_MOTION_DOT = .21676E-3
MEAN_MOTION_DDOT = 0

CCSDS_OMM_VERS = 2.0
CREATION_DATE  = 
ORIGINATOR     = 

OBJECT_NAME    = STARLINK-36216
OBJECT_ID      = 2025-304AB
CENTER_NAME    = EARTH
REF_FRAME      = TEME
TIME_SYSTEM    = UTC
MEAN_ELEMENT_THEORY = SGP/SGP4

EPOCH          = 2026-01-07T12:00:01.999296
MEAN_MOTION    = 15.52492860
ECCENTRICITY   = .0003089
INCLINATION    = 69.9999
RA_OF_ASC_NODE = 335.0285
ARG_OF_PERICENTER = 271.5970
MEAN_ANOMALY   = 24.8804

EPHEMERIS_TYPE = 0
CLASSIFICATION_TYPE = U
NORAD_CAT_ID   = 67217
ELEMENT_SET_NO = 999
REV_AT_EPOCH   = 460
BSTAR          = .31323E-3
MEAN_MOTION_DOT = .1913E-3
MEAN_MOTION_DDOT = 0

CCSDS_OMM_VERS = 2.0
CREATION_DATE  = 
ORIGINATOR     = 

OBJECT_NAME    = STARLINK-36211
OBJECT_ID      = 2025-304AC
CENTER_NAME    = EARTH
REF_FRAME      = TEME
TIME_SYSTEM    = UTC
MEAN_ELEMENT_THEORY = SGP/SGP4

EPOCH          = 2026-01-07T12:00:01.999296
MEAN_MOTION    = 15.52493307
ECCENTRICITY   = .0003041
INCLINATION    = 70.0000
RA_OF_ASC_NODE = 335.0262
ARG_OF_PERICENTER = 275.4985
MEAN_ANOMALY   = 22.8938

EPHEMERIS_TYPE = 0
CLASSIFICATION_TYPE = U
NORAD_CAT_ID   = 67218
ELEMENT_SET_NO = 999
REV_AT_EPOCH   = 457
BSTAR          = .32118E-3
MEAN_MOTION_DOT = .19621E-3
MEAN_MOTION_DDOT = 0

CCSDS_OMM_VERS = 2.0
CREATION_DATE  = 
ORIGINATOR     = 

OBJECT_NAME    = DISKSAT C
OBJECT_ID      = 2025-305A
CENTER_NAME    = EARTH
REF_FRAME      = TEME
TIME_SYSTEM    = UTC
MEAN_ELEMENT_THEORY = SGP/SGP4

EPOCH          = 2026-01-05T16:46:33.719232
MEAN_MOTION    = 15.06198836
ECCENTRICITY   = .00031547
INCLINATION    = 45.0131
RA_OF_ASC_NODE = 223.8990
ARG_OF_PERICENTER = 11.0070
MEAN_ANOMALY   = 349.0874

EPHEMERIS_TYPE = 0
CLASSIFICATION_TYPE = U
NORAD_CAT_ID   = 67219
ELEMENT_SET_NO = 999
REV_AT_EPOCH   = 279
BSTAR          = .84297594E-4
MEAN_MOTION_DOT = .1015E-4
MEAN_MOTION_DDOT = 0

