STARLINK-36265          
1 67208U 25304S   26007.50002314 -.02089050  00000+0 -42976-1 0  9991
2 67208  69.9998 335.0556 0003005 264.5252  10.1760 15.49191768  4602
STARLINK-36226          
1 67209U 25304T   26007.50002314 -.00051119  00000+0 -83252-3 0  9999
2 67209  70.0003 335.0477 0003394 277.9165   3.1999 15.52552292  4600
STARLINK-36173          
1 67210U 25304U   26007.50002314  .00030898  00000+0  50353-3 0  9996
2 67210  69.9997 335.0440 0003168 270.6557  12.4053 15.52490293  4601
STARLINK-36280          
1 67211U 25304V   26007.50002314  .00022889  00000+0  37407-3 0  9993
2 67211  69.9998 335.0417 0003258 273.2065  11.7721 15.52491938  4601
STARLINK-36213          
1 67212U 25304W   26007.50002314  .00032757  00000+0  53372-3 0  9998
2 67212  70.0000 335.0389 0003131 273.5667  13.3402 15.52481033  4607
STARLINK-36199          
1 67213U 25304X   26007.50002314  .00013776  00000+0  22645-3 0  9998
2 67213  69.9999 335.0377 0003093 275.0444  13.7651 15.52496109  4606
STARLINK-36203          
1 67214U 25304Y   26007.50002314 -.00092366  00000+0 -15139-2 0  9992
2 67214  70.0000 335.0357 0003319 270.3198  20.3836 15.52559897  4609
STARLINK-36221          
1 67215U 25304Z   26007.50002314 -.00090328  00000+0 -14802-2 0  9995
2 67215  70.0000 335.0337 0003144 269.6613  22.9597 15.52556770  4606
STARLINK-36212          
1 67216U 25304AA  26007.50002314  .00021676  00000+0  35444-3 0  9990
2 67216  69.9999 335.0306 0003202 272.1023  22.4604 15.52491467  4601
STARLINK-36216          
1 67217U 25304AB  26007.50002314  .00019130  00000+0  31323-3 0  9995
2 67217  69.9999 335.0285 0003089 271.5970  24.8804 15.52492860  4601
STARLINK-36211          
1 67218U 25304AC  26007.50002314  .00019621  00000+0  32118-3 0  9994
2 67218  70.0000 335.0262 0003041 275.4985  22.8938 15.52493307  4579
DISKSAT C               
1 67219U 25305A   26005.69900138  .00001015  00000+0  84298-4 0  9990
2 67219  45.0131 223.8990 0003154  11.0070 349.0874 15.06198836  2796
